[
  {
    "name": "STRAND-1",
    "line1": "1 39090U 13009E   26171.39785274  .00000190  00000+0  78154-4 0  9994",
    "line2": "2 39090  98.3923 351.5531 0007895 214.6818 145.3855 14.37164728697522"
  },
  {
    "name": "ZACUBE-1 (TSHEPISOSAT)",
    "line1": "1 39417U 13066B   26171.40676969  .00002330  00000+0  18337-3 0  9996",
    "line2": "2 39417  97.8070 133.7603 0041215 236.5821 123.1458 15.01203183681216"
  },
  {
    "name": "HORYU-2",
    "line1": "1 38340U 12025D   26171.32614970  .00002861  00000+0  29483-3 0  9992",
    "line2": "2 38340  98.2183 304.3908 0008545 163.7113 196.4381 14.91084655749197"
  },
  {
    "name": "CSSWE",
    "line1": "1 38761U 12048D   26171.14111649  .00023821  00000+0  49283-3 0  9998",
    "line2": "2 38761  64.6623  83.4852 0046663 172.8996 187.2814 15.44588057116850"
  },
  {
    "name": "CP5",
    "line1": "1 38763U 12048F   26171.34040705  .00008507  00000+0  29273-3 0  9997",
    "line2": "2 38763  64.6440 142.1664 0078003 175.2857 184.9025 15.27795467117247"
  },
  {
    "name": "METOP-B",
    "line1": "1 38771U 12049A   26171.42762080  .00000060  00000+0  47478-4 0  9997",
    "line2": "2 38771  98.6503 222.8621 0002032  10.6441 349.4779 14.21440128713725"
  },
  {
    "name": "SJ-9A",
    "line1": "1 38860U 12056A   26171.39772656  .00000678  00000+0  84364-4 0  9990",
    "line2": "2 38860  97.6710 143.2331 0024074 245.4114 114.4593 14.85483385700061"
  },
  {
    "name": "SARAL",
    "line1": "1 39086U 13009A   26171.46261523  .00000045  00000+0  32654-4 0  9997",
    "line2": "2 39086  98.5558 357.9883 0000619 282.5589  77.5526 14.32856589696077"
  },
  {
    "name": "AAUSAT 3",
    "line1": "1 39087U 13009B   26171.44656502  .00000464  00000+0  16091-3 0  9992",
    "line2": "2 39087  98.3703 355.1662 0010972 196.2330 163.8508 14.39942891697643"
  },
  {
    "name": "BRITE-AUSTRIA",
    "line1": "1 39091U 13009F   26171.48176721  .00000114  00000+0  53431-4 0  9993",
    "line2": "2 39091  98.3997 350.8358 0009287 225.5758 134.4669 14.36543158697523"
  },
  {
    "name": "UNIBRITE",
    "line1": "1 39092U 13009G   26171.42466762  .00000113  00000+0  53217-4 0  9996",
    "line2": "2 39092  98.4035 350.8919 0008260 221.3764 138.6798 14.36414319697459"
  },
  {
    "name": "NEE-01 PEGASO",
    "line1": "1 39151U 13018B   26171.34717294  .00002638  00000+0  25490-3 0  9997",
    "line2": "2 39151  98.1230 315.6014 0013386 148.8934 211.3080 14.93674117711177"
  },
  {
    "name": "TURKSAT-3USAT",
    "line1": "1 39152U 13018C   26171.22396030  .00001923  00000+0  17446-3 0  9994",
    "line2": "2 39152  97.7934 262.0368 0013384  90.7075 269.5680 14.96446685711542"
  },
  {
    "name": "CUBEBUG-1 (CAPITAN BETO)",
    "line1": "1 39153U 13018D   26171.44276468  .00002584  00000+0  22802-3 0  9997",
    "line2": "2 39153  98.1664 331.5280 0012487 135.2851 224.9378 14.97312309711559"
  },
  {
    "name": "PROBA-V",
    "line1": "1 39159U 13021A   26171.42253878  .00000052  00000+0  40931-4 0  9997",
    "line2": "2 39159  98.3585 149.8695 0005260 115.9586 244.2136 14.23597564681572"
  },
  {
    "name": "ESTCUBE 1",
    "line1": "1 39161U 13021C   26170.69385700  .00001144  00000+0  15265-3 0  9992",
    "line2": "2 39161  97.7292 224.7912 0008408  17.7389 342.4116 14.81406798705393"
  },
  {
    "name": "CASSIOPE",
    "line1": "1 39265U 13055A   26171.44198088  .00046037 -45328-6  50105-3 0  9991",
    "line2": "2 39265  80.9141  62.7685 0291626  51.5344 311.1666 15.25473611668168"
  },
  {
    "name": "APRIZESAT 7",
    "line1": "1 39416U 13066A   26171.44113595  .00000692  00000+0  73936-4 0  9996",
    "line2": "2 39416  97.7709 124.6143 0035260 198.2119 161.7840 14.91569653681711"
  },
  {
    "name": "APRIZESAT 8",
    "line1": "1 39425U 13066K   26171.43724441  .00000674  00000+0  79076-4 0  9994",
    "line2": "2 39425  97.8221 118.8597 0044329 275.4956  84.1205 14.87657684680159"
  },
  {
    "name": "CINEMA-3 (KHUSAT-2)",
    "line1": "1 39426U 13066L   26171.25632669  .00000726  00000+0  10078-3 0  9999",
    "line2": "2 39426  97.8400  83.3714 0089254 201.4819 158.2638 14.78303090674907"
  }
]