OBJECT_NAME,OBJECT_ID,EPOCH,MEAN_MOTION,ECCENTRICITY,INCLINATION,RA_OF_ASC_NODE,ARG_OF_PERICENTER,MEAN_ANOMALY,EPHEMERIS_TYPE,CLASSIFICATION_TYPE,NORAD_CAT_ID,ELEMENT_SET_NO,REV_AT_EPOCH,BSTAR,MEAN_MOTION_DOT,MEAN_MOTION_DDOT
HORYU-2,2012-025D,2026-06-20T07:49:39.334080,14.91084655,.0008545,98.2183,304.3908,163.7113,196.4381,0,U,38340,999,74919,.29483E-3,.2861E-4,0
CSSWE,2012-048D,2026-06-20T03:23:12.464736,15.44588057,.00466635,64.6623,83.4852,172.8996,187.2814,0,U,38761,999,11685,.49283223E-3,.23821E-3,0
CP5,2012-048F,2026-06-20T08:10:11.169120,15.27795467,.0078003,64.6440,142.1664,175.2857,184.9025,0,U,38763,999,11724,.29273E-3,.8507E-4,0
METOP-B,2012-049A,2026-06-20T10:15:46.437120,14.21440128,.0002032,98.6503,222.8621,10.6441,349.4779,0,U,38771,999,71372,.47478E-4,.6E-6,0
SJ-9A,2012-056A,2026-06-20T09:32:43.574784,14.85483385,.0024074,97.6710,143.2331,245.4114,114.4593,0,U,38860,999,70006,.84364E-4,.678E-5,0
SARAL,2013-009A,2026-06-20T11:06:09.955872,14.32856589,.0000619,98.5558,357.9883,282.5589,77.5526,0,U,39086,999,69607,.32654E-4,.45E-6,0
AAUSAT 3,2013-009B,2026-06-20T10:43:03.217728,14.39942891,.0010972,98.3703,355.1662,196.2330,163.8508,0,U,39087,999,69764,.16091E-3,.464E-5,0
STRAND-1,2013-009E,2026-06-20T09:32:54.476736,14.37164728,.0007895,98.3923,351.5531,214.6818,145.3855,0,U,39090,999,69752,.78154E-4,.19E-5,0
BRITE-AUSTRIA,2013-009F,2026-06-20T11:33:44.686944,14.36543158,.0009287,98.3997,350.8358,225.5758,134.4669,0,U,39091,999,69752,.53431E-4,.114E-5,0
UNIBRITE,2013-009G,2026-06-20T10:11:31.282368,14.36414319,.000826,98.4035,350.8919,221.3764,138.6798,0,U,39092,999,69745,.53217E-4,.113E-5,0
NEE-01 PEGASO,2013-018B,2026-06-20T08:19:55.742016,14.93674117,.0013386,98.1230,315.6014,148.8934,211.3080,0,U,39151,999,71117,.2549E-3,.2638E-4,0
TURKSAT-3USAT,2013-018C,2026-06-20T05:22:30.169920,14.96446685,.0013384,97.7934,262.0368,90.7075,269.5680,0,U,39152,999,71154,.17446E-3,.1923E-4,0
CUBEBUG-1 (CAPITAN BETO),2013-018D,2026-06-20T10:37:34.868352,14.97312309,.0012487,98.1664,331.5280,135.2851,224.9378,0,U,39153,999,71155,.22802E-3,.2584E-4,0
PROBA-V,2013-021A,2026-06-20T10:08:27.350592,14.23597564,.000526,98.3585,149.8695,115.9586,244.2136,0,U,39159,999,68157,.40931E-4,.52E-6,0
ESTCUBE 1,2013-021C,2026-06-19T16:39:09.244800,14.81406798,.00084087,97.7292,224.7912,17.7389,342.4116,0,U,39161,999,70539,.15265101E-3,.1144E-4,0
CASSIOPE,2013-055A,2026-06-20T10:36:27.148032,15.25473611,.0291626,80.9141,62.7685,51.5344,311.1666,0,U,39265,999,66816,.50105E-3,.46037E-3,-.45328E-6
APRIZESAT 7,2013-066A,2026-06-20T10:35:14.146080,14.91569653,.003526,97.7709,124.6143,198.2119,161.7840,0,U,39416,999,68171,.73936E-4,.692E-5,0
ZACUBE-1 (TSHEPISOSAT),2013-066B,2026-06-20T09:45:44.901216,15.01203183,.0041215,97.8070,133.7603,236.5821,123.1458,0,U,39417,999,68121,.18337E-3,.233E-4,0
APRIZESAT 8,2013-066K,2026-06-20T10:29:37.917024,14.87657684,.0044329,97.8221,118.8597,275.4956,84.1205,0,U,39425,999,68015,.79076E-4,.674E-5,0
CINEMA-3 (KHUSAT-2),2013-066L,2026-06-20T06:09:06.626016,14.78303090,.0089254,97.8400,83.3714,201.4819,158.2638,0,U,39426,999,67490,.10078E-3,.726E-5,0
